NORAD_CAT_ID,OBJECT_NAME,OBJECT_TYPE,EPOCH,MEAN_MOTION,ECCENTRICITY,INCLINATION,RA_OF_ASC_NODE,ARG_OF_PERICENTER,MEAN_ANOMALY,BSTAR,MEAN_MOTION_DOT,MEAN_MOTION_DDOT,TLE_LINE0,TLE_LINE1,TLE_LINE2,SEMIMAJOR_AXIS,PERIOD,APOGEE,PERIGEE,DECAYED
50814.0,STARLINK-3324,PAYLOAD,2023-04-01 21:10:23,15.08835565,9.23e-05,53.2155,305.1383,89.498,270.6117,0.00071975,0.00011184,0.0,0 STARLINK-3324,1 50814U 22001M   23091.88221400  .00011184  00000-0  71975-3 0  9990,2 50814  53.2155 305.1383 0000923  89.4980 270.6117 15.08835565 68459,6917.894,95.438,540.397,539.12,0.0
50814.0,STARLINK-3324,PAYLOAD,2023-04-02 13:04:14,15.08849768,0.0001009,53.2156,302.1655,97.931,262.1797,0.00082889,0.00012932,0.0,0 STARLINK-3324,1 50814U 22001M   23092.54461250  .00012932  00000-0  82889-3 0  9991,2 50814  53.2156 302.1655 0001009  97.9310 262.1797 15.08849768 68557,6917.851,95.437,540.414,539.018,0.0
50814.0,STARLINK-3324,PAYLOAD,2023-04-02 21:01:09,15.08856208,0.0001022,53.2157,300.6787,97.4256,262.6852,0.0006859,0.0001065,0.0,0 STARLINK-3324,1 50814U 22001M   23092.87580925  .00010650  00000-0  68590-3 0  9996,2 50814  53.2157 300.6787 0001022  97.4256 262.6852 15.08856208 69876,6917.831,95.437,540.403,538.989,0.0
50814.0,STARLINK-3324,PAYLOAD,2023-04-03 00:11:56,15.0886085,9.71e-05,53.2151,300.0829,92.0546,268.0557,0.00072802,0.00011324,0.0,0 STARLINK-3324,1 50814U 22001M   23093.00828705  .00011324  00000-0  72802-3 0  9993,2 50814  53.2151 300.0829 0000971  92.0546 268.0557 15.08860850 68628,6917.817,95.436,540.353,539.01,0.0
50814.0,STARLINK-3324,PAYLOAD,2023-04-03 20:51:56,15.0884733,8.66e-05,53.2141,296.2168,104.7032,255.4057,0.00038108,5.784e-05,0.0,0 STARLINK-3324,1 50814U 22001M   23093.86940898  .00005784  00000-0  38108-3 0  9999,2 50814  53.2141 296.2168 0000866 104.7032 255.4057 15.08847330 70023,6917.858,95.437,540.322,539.124,0.0
50814.0,STARLINK-3324,PAYLOAD,2023-04-03 22:27:20,15.08846659,0.0001015,53.2142,295.9195,94.2556,265.8552,0.00039218,5.96e-05,0.0,0 STARLINK-3324,1 50814U 22001M   23093.93564958  .00005960  00000-0  39218-3 0  9995,2 50814  53.2142 295.9195 0001015  94.2556 265.8552 15.08846659 68767,6917.86,95.437,540.427,539.023,0.0
50814.0,STARLINK-3324,PAYLOAD,2023-04-04 20:42:44,15.08839412,0.000104,53.2138,291.7555,90.7194,269.3917,0.00021333,3.109e-05,0.0,0 STARLINK-3324,1 50814U 22001M   23094.86301187  .00003109  00000-0  21333-3 0  9993,2 50814  53.2138 291.7555 0001040  90.7194 269.3917 15.08839412 70174,6917.882,95.438,540.467,539.028,0.0
50814.0,STARLINK-3324,PAYLOAD,2023-04-04 23:53:30,15.08843632,0.0001,53.2146,291.1602,94.6718,265.4388,0.00020804,3.025e-05,0.0,0 STARLINK-3324,1 50814U 22001M   23094.99549034  .00003025  00000-0  20804-3 0  9991,2 50814  53.2146 291.1602 0001000  94.6718 265.4388 15.08843632 68929,6917.869,95.437,540.426,539.043,0.0
50814.0,STARLINK-3324,PAYLOAD,2023-04-05 20:33:31,15.08844899,0.0001075,53.2151,287.2933,80.1996,279.9117,0.00028999,4.331e-05,0.0,0 STARLINK-3324,1 50814U 22001M   23095.85661330  .00004331  00000-0  28999-3 0  9995,2 50814  53.2151 287.2933 0001075  80.1996 279.9117 15.08844899 69059,6917.865,95.437,540.474,538.987,0.0
50814.0,STARLINK-3324,PAYLOAD,2023-04-06 06:05:50,15.08843232,0.00011,53.2149,285.5097,87.2193,272.8925,0.0002313,3.396e-05,0.0,0 STARLINK-3324,1 50814U 22001M   23096.25405365  .00003396  00000-0  23130-3 0  9996,2 50814  53.2149 285.5097 0001100  87.2193 272.8925 15.08843232 70381,6917.871,95.437,540.496,538.975,0.0
50814.0,STARLINK-3324,PAYLOAD,2023-04-06 12:27:23,15.08835641,0.000114,53.2148,284.3201,97.9768,262.1353,0.00037194,5.636e-05,0.0,0 STARLINK-3324,1 50814U 22001M   23096.51901687  .00005636  00000-0  37194-3 0  9997,2 50814  53.2148 284.3201 0001140  97.9768 262.1353 15.08835641 69159,6917.894,95.438,540.547,538.97,0.0
50814.0,STARLINK-3324,PAYLOAD,2023-04-06 18:48:55,15.08845917,0.0001113,53.2142,283.1337,82.9727,277.1391,0.0002013,2.918e-05,0.0,0 STARLINK-3324,1 50814U 22001M   23096.78397301  .00002918  00000-0  20130-3 0  9990,2 50814  53.2142 283.1337 0001113  82.9727 277.1391 15.08845917 69198,6917.862,95.437,540.497,538.957,0.0
50814.0,STARLINK-3324,PAYLOAD,2023-04-07 12:18:10,15.0884055,0.0001187,53.2137,279.8627,73.3286,286.7837,0.00023938,3.524e-05,0.0,0 STARLINK-3324,1 50814U 22001M   23097.51261629  .00003524  00000-0  23938-3 0  9998,2 50814  53.2137 279.8627 0001187  73.3286 286.7837 15.08840550 70574,6917.879,95.438,540.565,538.923,0.0
50814.0,STARLINK-3324,PAYLOAD,2023-04-08 12:08:56,15.08841993,0.0001041,53.2129,275.3994,87.9515,272.1596,7.7401e-05,9.44e-06,0.0,0 STARLINK-3324,1 50814U 22001M   23098.50621342  .00000944  00000-0  77401-4 0  9998,2 50814  53.2129 275.3994 0001041  87.9515 272.1596 15.08841993 69456,6917.874,95.437,540.459,539.019,0.0
50814.0,STARLINK-3324,PAYLOAD,2023-04-08 18:30:29,15.08840916,8.86e-05,53.2171,274.2127,82.8926,277.2167,0.0001217,1.65e-05,0.0,0 STARLINK-3324,1 50814U 22001M   23098.77117375  .00001650  00000-0  12170-3 0  9999,2 50814  53.2171 274.2127 0000886  82.8926 277.2167 15.08840916 70765,6917.878,95.437,540.356,539.13,0.0
50814.0,STARLINK-3324,PAYLOAD,2023-04-09 10:24:21,15.08836478,0.000128,53.2147,271.2365,83.9963,276.1175,3.365e-05,2.48e-06,0.0,0 STARLINK-3324,1 50814U 22001M   23099.43357720  .00000248  00000-0  33650-4 0  9992,2 50814  53.2147 271.2365 0001280  83.9963 276.1175 15.08836478 69595,6917.891,95.438,540.642,538.871,0.0
50814.0,STARLINK-3324,PAYLOAD,2023-04-09 18:21:16,15.08838407,0.0001053,53.2142,269.7496,93.375,266.7362,4.0131e-05,3.51e-06,0.0,0 STARLINK-3324,1 50814U 22001M   23099.76477555  .00000351  00000-0  40131-4 0  9994,2 50814  53.2142 269.7496 0001053  93.3750 266.7362 15.08838407 69647,6917.885,95.438,540.479,539.022,0.0
50814.0,STARLINK-3324,PAYLOAD,2023-04-10 03:53:35,15.08839881,0.0001012,53.2151,267.9658,91.6334,268.4774,0.00011734,1.58e-05,0.0,0 STARLINK-3324,1 50814U 22001M   23100.16221638  .00001580  00000-0  11734-3 0  9991,2 50814  53.2151 267.9658 0001012  91.6334 268.4774 15.08839881 70972,6917.881,95.438,540.446,539.046,0.0
50814.0,STARLINK-3324,PAYLOAD,2023-04-10 13:25:54,15.08840436,9.79e-05,53.2142,266.1806,85.4264,274.684,0.0001253,1.707e-05,0.0,0 STARLINK-3324,1 50814U 22001M   23100.55965648  .00001707  00000-0  12530-3 0  9996,2 50814  53.2142 266.1806 0000979  85.4264 274.6840 15.08840436 69768,6917.879,95.438,540.421,539.067,0.0
50814.0,STARLINK-3324,PAYLOAD,2023-04-10 19:47:26,15.08852262,0.0001198,53.2156,264.9924,96.4505,263.6623,0.00016139,2.282e-05,0.0,0 STARLINK-3324,1 50814U 22001M   23100.82461011  .00002282  00000-0  16139-3 0  9999,2 50814  53.2156 264.9924 0001198  96.4505 263.6623 15.08852262 71078,6917.843,95.437,540.537,538.879,0.0
50814.0,STARLINK-3324,PAYLOAD,2023-04-11 10:05:54,15.08840719,0.0001342,53.217,262.3185,90.2872,269.8274,6.9293e-05,8.15e-06,0.0,0 STARLINK-3324,1 50814U 22001M   23101.42077472  .00000815  00000-0  69293-4 0  9990,2 50814  53.2170 262.3185 0001342  90.2872 269.8274 15.08840719 71169,6917.878,95.438,540.672,538.815,0.0
50814.0,STARLINK-3324,PAYLOAD,2023-04-12 03:35:09,15.088352,0.0001255,53.2158,259.0453,90.3963,269.7173,-7.1709e-06,-4.02e-06,0.0,0 STARLINK-3324,1 50814U 22001M   23102.14942088 -.00000402  00000-0 -71709-5 0  9994,2 50814  53.2158 259.0453 0001255  90.3963 269.7173 15.08835200 71279,6917.895,95.438,540.628,538.892,0.0
50814.0,STARLINK-3324,PAYLOAD,2023-04-13 09:47:29,15.08831763,0.0001516,53.2177,253.3962,81.79,278.3264,0.00046188,7.069e-05,0.0,0 STARLINK-3324,1 50814U 22001M   23103.40798604  .00007069  00000-0  46188-3 0  9992,2 50814  53.2177 253.3962 0001516  81.7900 278.3264 15.08831763 70194,6917.906,95.438,540.819,538.722,0.0
50814.0,STARLINK-3324,PAYLOAD,2023-04-13 19:19:47,15.0885193,0.0001371,53.2164,251.6107,91.7156,268.3993,0.00031467,4.725e-05,0.0,0 STARLINK-3324,1 50814U 22001M   23103.80541472  .00004725  00000-0  31467-3 0  9995,2 50814  53.2164 251.6107 0001371  91.7156 268.3993 15.08851930 71529,6917.844,95.437,540.657,538.76,0.0
50814.0,STARLINK-3324,PAYLOAD,2023-04-14 09:38:16,15.08844568,0.0001629,53.2149,248.9357,79.6634,280.4542,0.00012966,1.776e-05,0.0,0 STARLINK-3324,1 50814U 22001M   23104.40157923  .00001776  00000-0  12966-3 0  9992,2 50814  53.2149 248.9357 0001629  79.6634 280.4542 15.08844568 70343,6917.866,95.437,540.858,538.605,0.0
50814.0,STARLINK-3324,PAYLOAD,2023-04-15 03:07:31,15.08836178,0.0002524,53.2092,245.664,82.7791,277.3488,-4.2097e-05,-9.58e-06,0.0,0 STARLINK-3324,1 50814U 22001M   23105.13022216 -.00000958  00000-0 -42097-4 0  9991,2 50814  53.2092 245.6640 0002524  82.7791 277.3488 15.08836178 71728,6917.892,95.438,541.503,538.011,0.0
50814.0,STARLINK-3324,PAYLOAD,2023-04-15 12:39:49,15.08839058,0.0001359,53.214,243.881,77.1637,282.9506,2.7086e-07,-2.84e-06,0.0,0 STARLINK-3324,1 50814U 22001M   23105.52765807 -.00000284  00000-0  27086-6 0  9998,2 50814  53.2140 243.8810 0001359  77.1637 282.9506 15.08839058 70512,6917.883,95.438,540.688,538.808,0.0
50814.0,STARLINK-3324,PAYLOAD,2023-04-15 19:01:21,15.08851764,0.000143,53.2143,242.6875,99.0562,261.0592,0.00033654,5.074e-05,0.0,0 STARLINK-3324,1 50814U 22001M   23105.79261302  .00005074  00000-0  33654-3 0  9994,2 50814  53.2143 242.6875 0001430  99.0562 261.0592 15.08851764 70558,6917.844,95.437,540.699,538.72,0.0
50814.0,STARLINK-3324,PAYLOAD,2023-04-16 12:30:36,15.08840652,0.0001535,53.2133,239.4156,92.5625,267.5543,0.00026015,3.855e-05,0.0,0 STARLINK-3324,1 50814U 22001M   23106.52125826  .00003855  00000-0  26015-3 0  9994,2 50814  53.2133 239.4156 0001535  92.5625 267.5543 15.08840652 71931,6917.878,95.438,540.805,538.682,0.0
50814.0,STARLINK-3324,PAYLOAD,2023-04-16 14:05:59,15.08842053,0.0001271,53.215,239.1195,85.1409,274.9728,0.00032073,4.82e-05,0.0,0 STARLINK-3324,1 50814U 22001M   23106.58749845  .00004820  00000-0  32073-3 0  9997,2 50814  53.2150 239.1195 0001271  85.1409 274.9728 15.08842053 70679,6917.874,95.437,540.618,538.86,0.0
